[{"OBJECT_NAME":"STARLINK-34722","OBJECT_ID":"2025-152K","EPOCH":"2026-03-09T14:45:40.819392","MEAN_MOTION":15.05651695,"ECCENTRICITY":0.0001517,"INCLINATION":97.6029,"RA_OF_ASC_NODE":285.3943,"ARG_OF_PERICENTER":86.9486,"MEAN_ANOMALY":273.1914,"EPHEMERIS_TYPE":0,"CLASSIFICATION_TYPE":"U","NORAD_CAT_ID":64851,"ELEMENT_SET_NO":999,"REV_AT_EPOCH":3540,"BSTAR":0.00028217,"MEAN_MOTION_DOT":4.013e-5,"MEAN_MOTION_DDOT":0},{"OBJECT_NAME":"CZ-4B DEB","OBJECT_ID":"2008-053G","EPOCH":"2026-03-08T12:59:24.951264","MEAN_MOTION":14.89391484,"ECCENTRICITY":0.01030319,"INCLINATION":97.6151,"RA_OF_ASC_NODE":98.188,"ARG_OF_PERICENTER":41.7816,"MEAN_ANOMALY":319.121,"EPHEMERIS_TYPE":0,"CLASSIFICATION_TYPE":"U","NORAD_CAT_ID":35571,"ELEMENT_SET_NO":999,"REV_AT_EPOCH":91755,"BSTAR":0.0016985241,"MEAN_MOTION_DOT":0.00017804,"MEAN_MOTION_DDOT":0}]
